{"type": "FeatureCollection", "features": [ {"type": "Feature", "properties": {"norad_id": 34468, "name": "COSMOS 2251 DEB", "group": "cosmos-2251-debris", "lat": 13.090629416926681, "lon": -79.82754459270508, "alt_km": 725.4205639255724, "timestamp": "2025-12-19T18:58:41.980419+00:00", "meta": {"OBJECT_NAME": "COSMOS 2251 DEB", "OBJECT_ID": "1993-036TM", "EPOCH": "2025-12-19T03:16:41.761344", "MEAN_MOTION": 14.47641262, "ECCENTRICITY": 0.00763156, "INCLINATION": 74.013, "RA_OF_ASC_NODE": 105.22, "ARG_OF_PERICENTER": 248.844, "MEAN_ANOMALY": 110.4552, "EPHEMERIS_TYPE": 0, "CLASSIFICATION_TYPE": "U", "NORAD_CAT_ID": 34468, "ELEMENT_SET_NO": 999, "REV_AT_EPOCH": 88554, "BSTAR": 0.00027141983, "MEAN_MOTION_DOT": 1.008e-05, "MEAN_MOTION_DDOT": 0}, "tle": {"line1": "1 34468U 93036TM  25353.13659446  .00001008  00000+0  27142-3 0  9999", "line2": "2 34468  74.0130 105.2200 0076315 248.8440 110.4552 14.47641262885549"}}, "geometry": {"type": "Point", "coordinates": [-79.82754459270508, 13.090629416926681]}}, {"type": "Feature", "properties": {"norad_id": 34472, "name": "COSMOS 2251 DEB", "group": "cosmos-2251-debris", "lat": 29.53526342715387, "lon": 95.85231010929019, "alt_km": 1237.3468748887854, "timestamp": "2025-12-19T18:58:41.980429+00:00", "meta": {"OBJECT_NAME": "COSMOS 2251 DEB", "OBJECT_ID": "1993-036TR", "EPOCH": "2025-12-18T16:32:15.678240", "MEAN_MOTION": 13.70339087, "ECCENTRICITY": 0.03278808, "INCLINATION": 74.0847, "RA_OF_ASC_NODE": 88.3603, "ARG_OF_PERICENTER": 218.0804, "MEAN_ANOMALY": 139.6734, "EPHEMERIS_TYPE": 0, "CLASSIFICATION_TYPE": "U", "NORAD_CAT_ID": 34472, "ELEMENT_SET_NO": 999, "REV_AT_EPOCH": 83808, "BSTAR": 0.00051678335, "MEAN_MOTION_DOT": 6.44e-06, "MEAN_MOTION_DDOT": 0}, "tle": {"line1": "1 34472U 93036TR  25352.68907035  .00000644  00000+0  51678-3 0  9999", "line2": "2 34472  74.0847  88.3603 0327880 218.0804 139.6734 13.70339087838082"}}, "geometry": {"type": "Point", "coordinates": [95.85231010929019, 29.53526342715387]}}, {"type": "Feature", "properties": {"norad_id": 34474, "name": "COSMOS 2251 DEB", "group": "cosmos-2251-debris", "lat": -0.8439118626036097, "lon": -46.37242767211745, "alt_km": 744.8131621889543, "timestamp": "2025-12-19T18:58:41.980439+00:00", "meta": {"OBJECT_NAME": "COSMOS 2251 DEB", "OBJECT_ID": "1993-036TT", "EPOCH": "2025-12-18T22:45:14.450688", "MEAN_MOTION": 14.06458379, "ECCENTRICITY": 0.0198869, "INCLINATION": 74.0777, "RA_OF_ASC_NODE": 315.3391, "ARG_OF_PERICENTER": 27.6248, "MEAN_ANOMALY": 27.5907, "EPHEMERIS_TYPE": 0, "CLASSIFICATION_TYPE": "U", "NORAD_CAT_ID": 34474, "ELEMENT_SET_NO": 999, "REV_AT_EPOCH": 85596, "BSTAR": 0.0018742434, "MEAN_MOTION_DOT": 3.684e-05, "MEAN_MOTION_DDOT": 0}, "tle": {"line1": "1 34474U 93036TT  25352.94808392  .00003684  00000+0  18742-2 0  9997", "line2": "2 34474  74.0777 315.3391 0198869  27.6248  27.5907 14.06458379855961"}}, "geometry": {"type": "Point", "coordinates": [-46.37242767211745, -0.8439118626036097]}}, {"type": "Feature", "properties": {"norad_id": 34476, "name": "COSMOS 2251 DEB", "group": "cosmos-2251-debris", "lat": 68.75947032333073, "lon": 118.16068366167082, "alt_km": 1144.648915174238, "timestamp": "2025-12-19T18:58:41.980449+00:00", "meta": {"OBJECT_NAME": "COSMOS 2251 DEB", "OBJECT_ID": "1993-036TV", "EPOCH": "2025-12-19T04:42:31.578912", "MEAN_MOTION": 13.82092008, "ECCENTRICITY": 0.03204419, "INCLINATION": 74.0092, "RA_OF_ASC_NODE": 71.6237, "ARG_OF_PERICENTER": 289.8321, "MEAN_ANOMALY": 66.8527, "EPHEMERIS_TYPE": 0, "CLASSIFICATION_TYPE": "U", "NORAD_CAT_ID": 34476, "ELEMENT_SET_NO": 999, "REV_AT_EPOCH": 83727, "BSTAR": 0.0028706471, "MEAN_MOTION_DOT": 4.548e-05, "MEAN_MOTION_DDOT": 0}, "tle": {"line1": "1 34476U 93036TV  25353.19619883  .00004548  00000+0  28706-2 0  9993", "line2": "2 34476  74.0092  71.6237 0320441 289.8321  66.8527 13.82092008837275"}}, "geometry": {"type": "Point", "coordinates": [118.16068366167082, 68.75947032333073]}}, {"type": "Feature", "properties": {"norad_id": 34477, "name": "COSMOS 2251 DEB", "group": "cosmos-2251-debris", "lat": 61.17966870953176, "lon": 87.54615577687873, "alt_km": 751.1582824845655, "timestamp": "2025-12-19T18:58:41.980459+00:00", "meta": {"OBJECT_NAME": "COSMOS 2251 DEB", "OBJECT_ID": "1993-036TW", "EPOCH": "2025-12-19T03:58:34.192128", "MEAN_MOTION": 14.56906596, "ECCENTRICITY": 0.00768407, "INCLINATION": 73.9791, "RA_OF_ASC_NODE": 57.2561, "ARG_OF_PERICENTER": 243.2295, "MEAN_ANOMALY": 145.4212, "EPHEMERIS_TYPE": 0, "CLASSIFICATION_TYPE": "U", "NORAD_CAT_ID": 34477, "ELEMENT_SET_NO": 999, "REV_AT_EPOCH": 88719, "BSTAR": 0.00057302848, "MEAN_MOTION_DOT": 2.646e-05, "MEAN_MOTION_DDOT": 0}, "tle": {"line1": "1 34477U 93036TW  25353.16567352  .00002646  00000+0  57303-3 0  9997", "line2": "2 34477  73.9791  57.2561 0076840 243.2295 145.4212 14.56906596887194"}}, "geometry": {"type": "Point", "coordinates": [87.54615577687873, 61.17966870953176]}}, {"type": "Feature", "properties": {"norad_id": 34478, "name": "COSMOS 2251 DEB", "group": "cosmos-2251-debris", "lat": 12.219048643941216, "lon": 168.81997844910904, "alt_km": 524.7348710800388, "timestamp": "2025-12-19T18:58:41.980469+00:00", "meta": {"OBJECT_NAME": "COSMOS 2251 DEB", "OBJECT_ID": "1993-036TX", "EPOCH": "2025-12-19T04:27:46.709856", "MEAN_MOTION": 15.08510334, "ECCENTRICITY": 0.00342751, "INCLINATION": 74.0409, "RA_OF_ASC_NODE": 353.6176, "ARG_OF_PERICENTER": 213.3529, "MEAN_ANOMALY": 270.9757, "EPHEMERIS_TYPE": 0, "CLASSIFICATION_TYPE": "U", "NORAD_CAT_ID": 34478, "ELEMENT_SET_NO": 999, "REV_AT_EPOCH": 89070, "BSTAR": 0.0020794755, "MEAN_MOTION_DOT": 0.00033001, "MEAN_MOTION_DDOT": 0}, "tle": {"line1": "1 34478U 93036TX  25353.18595729  .00033001  00000+0  20795-2 0  9992", "line2": "2 34478  74.0409 353.6176 0034275 213.3529 270.9757 15.08510334890700"}}, "geometry": {"type": "Point", "coordinates": [168.81997844910904, 12.219048643941216]}}, {"type": "Feature", "properties": {"norad_id": 34481, "name": "COSMOS 2251 DEB", "group": "cosmos-2251-debris", "lat": 2.3008692730334985, "lon": 41.201363454123445, "alt_km": 828.6465539033024, "timestamp": "2025-12-19T18:58:41.980479+00:00", "meta": {"OBJECT_NAME": "COSMOS 2251 DEB", "OBJECT_ID": "1993-036UA", "EPOCH": "2025-12-18T09:31:28.100928", "MEAN_MOTION": 14.32570922, "ECCENTRICITY": 0.0070547, "INCLINATION": 73.9796, "RA_OF_ASC_NODE": 43.0926, "ARG_OF_PERICENTER": 216.3849, "MEAN_ANOMALY": 159.8119, "EPHEMERIS_TYPE": 0, "CLASSIFICATION_TYPE": "U", "NORAD_CAT_ID": 34481, "ELEMENT_SET_NO": 999, "REV_AT_EPOCH": 87530, "BSTAR": 0.00051303593, "MEAN_MOTION_DOT": 1.405e-05, "MEAN_MOTION_DDOT": 0}, "tle": {"line1": "1 34481U 93036UA  25352.39685302  .00001405  00000+0  51304-3 0  9999", "line2": "2 34481  73.9796  43.0926 0070547 216.3849 159.8119 14.32570922875305"}}, "geometry": {"type": "Point", "coordinates": [41.201363454123445, 2.3008692730334985]}}, {"type": "Feature", "properties": {"norad_id": 34482, "name": "COSMOS 2251 DEB", "group": "cosmos-2251-debris", "lat": 22.366574671978736, "lon": -143.296774782838, "alt_km": 675.7242180049607, "timestamp": "2025-12-19T18:58:41.980489+00:00", "meta": {"OBJECT_NAME": "COSMOS 2251 DEB", "OBJECT_ID": "1993-036UB", "EPOCH": "2025-12-19T01:35:20.190624", "MEAN_MOTION": 14.69302815, "ECCENTRICITY": 0.00446477, "INCLINATION": 74.0361, "RA_OF_ASC_NODE": 211.3413, "ARG_OF_PERICENTER": 270.1268, "MEAN_ANOMALY": 241.8622, "EPHEMERIS_TYPE": 0, "CLASSIFICATION_TYPE": "U", "NORAD_CAT_ID": 34482, "ELEMENT_SET_NO": 999, "REV_AT_EPOCH": 88280, "BSTAR": 0.0012618865, "MEAN_MOTION_DOT": 7.539e-05, "MEAN_MOTION_DDOT": 0}, "tle": {"line1": "1 34482U 93036UB  25353.06620591  .00007539  00000+0  12619-2 0  9993", "line2": "2 34482  74.0361 211.3413 0044647 270.1268 241.8622 14.69302815882800"}}, "geometry": {"type": "Point", "coordinates": [-143.296774782838, 22.366574671978736]}}, {"type": "Feature", "properties": {"norad_id": 34544, "name": "COSMOS 2251 DEB", "group": "cosmos-2251-debris", "lat": -59.99547983721042, "lon": 42.59312556672046, "alt_km": 800.4573585735143, "timestamp": "2025-12-19T18:58:41.980500+00:00", "meta": {"OBJECT_NAME": "COSMOS 2251 DEB", "OBJECT_ID": "1993-036UE", "EPOCH": "2025-12-19T00:51:44.773632", "MEAN_MOTION": 13.54667725, "ECCENTRICITY": 0.03838358, "INCLINATION": 73.914, "RA_OF_ASC_NODE": 193.8359, "ARG_OF_PERICENTER": 221.1208, "MEAN_ANOMALY": 301.5881, "EPHEMERIS_TYPE": 0, "CLASSIFICATION_TYPE": "U", "NORAD_CAT_ID": 34544, "ELEMENT_SET_NO": 999, "REV_AT_EPOCH": 82967, "BSTAR": 0.00032315297, "MEAN_MOTION_DOT": 3.31e-06, "MEAN_MOTION_DDOT": 0}, "tle": {"line1": "1 34544U 93036UE  25353.03593488  .00000331  00000+0  32315-3 0  9992", "line2": "2 34544  73.9140 193.8359 0383835 221.1208 301.5881 13.54667725829674"}}, "geometry": {"type": "Point", "coordinates": [42.59312556672046, -59.99547983721042]}}, {"type": "Feature", "properties": {"norad_id": 34546, "name": "COSMOS 2251 DEB", "group": "cosmos-2251-debris", "lat": -25.353414083747317, "lon": -131.75865673923116, "alt_km": 731.5904957272514, "timestamp": "2025-12-19T18:58:41.980510+00:00", "meta": {"OBJECT_NAME": "COSMOS 2251 DEB", "OBJECT_ID": "1993-036UG", "EPOCH": "2025-12-18T20:25:38.919360", "MEAN_MOTION": 14.45436583, "ECCENTRICITY": 0.00220233, "INCLINATION": 74.0309, "RA_OF_ASC_NODE": 237.7908, "ARG_OF_PERICENTER": 310.9498, "MEAN_ANOMALY": 175.2081, "EPHEMERIS_TYPE": 0, "CLASSIFICATION_TYPE": "U", "NORAD_CAT_ID": 34546, "ELEMENT_SET_NO": 999, "REV_AT_EPOCH": 88114, "BSTAR": 0.00043280851, "MEAN_MOTION_DOT": 1.502e-05, "MEAN_MOTION_DDOT": 0}, "tle": {"line1": "1 34546U 93036UG  25352.85114490  .00001502  00000+0  43281-3 0  9990", "line2": "2 34546  74.0309 237.7908 0022023 310.9498 175.2081 14.45436583881145"}}, "geometry": {"type": "Point", "coordinates": [-131.75865673923116, -25.353414083747317]}}]}